pincode,latitude,longitude,hmap,name
400074,19.029,72.8881,0.1,Randy Hicks
400037,19.0257,72.8697,0.1,Calvin Potts
400042,19.1338,72.9384,0.1,Nancy Kelley
400615,19.2683,72.971,0.1,Robert Richmond
400058,19.1227,72.8302,0.1,Andrew Watkins
400081,19.1661,72.9646,0.1,William Sloan
400008,18.9671,72.8287,0.1,Joshua Cooley
400058,19.1227,72.8302,0.1,Ronald Strickland
400066,19.2313,72.8635,0.1,Calvin Rodgers
400086,19.0893,72.9078,0.1,Martin Davenport
400101,19.2059,72.8661,0.1,Carla Huff
400050,19.0552,72.83,0.1,Adam Pham
400071,19.0521,72.9007,0.1,Mr. Daniel Davidson DDS
400008,18.9671,72.8287,0.1,Michael Murphy
400064,19.1872,72.8407,0.1,Curtis Bernard
400036,18.9625,72.805,0.1,Zachary Smith
400059,19.1119,72.879,0.1,Daniel Bryant
400013,18.9982,72.8275,0.1,Stephen Peterson
400005,18.9104,72.8198,0.1,Denise Clark
400017,19.0456,72.8537,0.1,Anne Foster
400007,18.9618,72.8134,0.1,Michelle Banks
400043,19.0633,72.9258,0.1,Alyssa Johnson
400058,19.1227,72.8302,0.1,Amber Alvarez
400006,18.9541,72.8004,0.1,Megan Becker
400074,19.029,72.8881,0.1,Charles Smith
400064,19.1872,72.8407,0.1,Carl Cook
400082,19.1741,72.9372,0.1,Daniel Cummings
400010,18.9702,72.846,0.1,John Moore
400094,19.0359,72.9247,0.1,Mr. Jason Adams
400038,18.9377,72.839,0.1,Andrew Mays
400701,19.125362,72.999199,0.1,Douglas Brady
400033,18.9856,72.8442,0.1,Sean Hickman
400015,18.9961,72.8528,0.1,Caleb Bradley
400063,19.1648,72.8533,0.1,Tammy Lewis
400042,19.1338,72.9384,0.1,Cindy West
400069,19.1178,72.8737,0.1,James Zimmerman
400078,19.157,72.9327,0.1,Linda Harrell
400069,19.1178,72.8737,0.1,Amy Thomas
400026,18.9706,72.8095,0.1,David Hill
400035,18.9417,72.7936,0.1,David Hicks PhD
400021,18.9256,72.8242,0.1,Paul Parsons
400057,19.1007,72.8485,0.1,James Carter
400088,19.0483,72.9288,0.1,Ethan Fernandez
400014,19.0148,72.8455,0.1,Nicole Moran
400051,19.0596,72.8553,0.1,Joseph Smith
400013,18.9982,72.8275,0.1,Gregory Simmons
400050,19.0552,72.83,0.1,Cindy Morgan
400008,18.9671,72.8287,0.1,Jeremy Boyd
400084,19.0976,72.9032,0.1,Katherine Dominguez
400074,19.029,72.8881,0.1,Jacob Atkinson
400090,19.1629,72.8353,0.1,Bradley Bell
400034,18.9724,72.8148,0.1,Cory Phillips
400101,19.2059,72.8661,0.1,Richard Morgan
400088,19.0483,72.9288,0.1,Holly Thompson
400078,19.157,72.9327,0.1,William Conley
400033,18.9856,72.8442,0.1,Jennifer Parks
400061,19.1427,72.8053,0.1,Amy Schultz
400057,19.1007,72.8485,0.1,Carl Miller
400005,18.9104,72.8198,0.1,Danny Grimes
400076,19.1239,72.9094,0.1,Thomas Powers
400009,18.9583,72.8389,0.1,James Rubio
400003,18.9532,72.8353,0.1,Carrie Arellano
400093,19.1283,72.8677,0.1,William Baker
400098,19.0718,72.8615,0.1,Jamie Phillips
400023,18.9321,72.8323,0.1,Cody Porter
400034,18.9724,72.8148,0.1,Joseph Davis
400054,19.082,72.8345,0.1,Alexandria Harvey
400093,19.1283,72.8677,0.1,Andrew Washington
400018,18.9985,72.8174,0.1,Andrew Marquez
400026,18.9706,72.8095,0.1,Michael Flores
400708,19.157934,72.993477,0.1,Craig Montoya
400028,19.0217,72.8375,0.1,Teresa Martinez
400005,18.9104,72.8198,0.1,Wesley Juarez
400069,19.1178,72.8737,0.1,Jason Coleman
400091,19.234,72.8399,0.1,Derrick Long
400039,18.9223,72.8312,0.1,Steven Roberts IV
400075,19.0799,72.9174,0.1,Thomas Black
400081,19.1661,72.9646,0.1,Edward Conley
400071,19.0521,72.9007,0.1,Ryan Walker
400022,19.0426,72.8638,0.1,Samantha Mack
400029,19.0797,72.8679,0.1,Shannon Young
400087,19.1391,72.8956,0.1,Cody Hill
400048,18.9104,72.8198,0.1,Robert Reed
400019,19.0269,72.8554,0.1,Carlos Colon
400085,19.0438,72.9121,0.1,Kevin Wilson
400022,19.0426,72.8638,0.1,Andrea Howe
400050,19.0552,72.83,0.1,Joel Vasquez
400095,19.1888,72.8197,0.1,Margaret Rich
400066,19.2313,72.8635,0.1,Amy Jones
400077,19.0779,72.9056,0.1,Dennis Carpenter
400063,19.1648,72.8533,0.1,Norma Huffman
400020,18.9351,72.8264,0.1,Jacqueline Carter
400006,18.9541,72.8004,0.1,Brian Murphy
400040,19.0636,72.9228,0.1,Heather Brown
400081,19.1661,72.9646,0.1,Danny Bray
400064,19.1872,72.8407,0.1,Nathaniel Wilson
400040,19.0636,72.9228,0.1,Kathryn Ayala
400030,19.0122,72.8219,0.1,Brandon Alexander
400049,19.1047,72.8268,0.1,Paul Benitez
400065,19.1556,72.885,0.1,Nathan Sanders
400083,19.1166,72.9374,0.1,Samuel Mann
400066,19.2313,72.8635,0.1,Grant Little
400028,19.0217,72.8375,0.1,Gabrielle Daniels
400054,19.082,72.8345,0.1,Jorge Evans
400021,18.9256,72.8242,0.1,Connie Adams
400093,19.1283,72.8677,0.1,Jason Morrison
400093,19.1283,72.8677,0.1,Jason Garcia
400084,19.0976,72.9032,0.1,Ryan Howard
400087,19.1391,72.8956,0.1,Alex Brooks
400028,19.0217,72.8375,0.1,Michael Smith
400069,19.1178,72.8737,0.1,Robert Blair
400062,19.1593,72.8427,0.1,Cindy Herrera
400035,18.9417,72.7936,0.1,Eric Davenport
400001,18.9385,72.8363,0.1,Robert Melton
400026,18.9706,72.8095,0.1,Leslie Novak
400003,18.9532,72.8353,0.1,Tanner Parker
400050,19.0552,72.83,0.1,Christopher Davis
400047,19.1246,72.8422,0.1,Gary Hubbard
400080,19.1721,72.9483,0.1,Daniel Garcia
400078,19.157,72.9327,0.1,Karen Nolan
400014,19.0148,72.8455,0.1,Robert Wilson
400041,19.0172,72.9398,0.1,John Olson
400053,19.1121,72.8611,0.1,Alexander Todd
400054,19.082,72.8345,0.1,Ryan Moss
400101,19.2059,72.8661,0.1,Michael Hogan
400077,19.0779,72.9056,0.1,Jody Rodriguez
400018,18.9985,72.8174,0.1,Michael Buchanan
400013,18.9982,72.8275,0.1,Connie Garcia
400075,19.0799,72.9174,0.1,Daniel Frederick
400027,18.9793,72.8383,0.1,David Zuniga
400079,19.1025,72.9254,0.1,Lauren Morales
400021,18.9256,72.8242,0.1,Taylor Chavez
400023,18.9321,72.8323,0.1,Shawn Anderson DDS
400076,19.1239,72.9094,0.1,Robert Alexander
400101,19.2059,72.8661,0.1,Miss Sarah Carter
400030,19.0122,72.8219,0.1,Brian Robinson
400062,19.1593,72.8427,0.1,Christie Rivera
400101,19.2059,72.8661,0.1,Jason Rogers
400038,18.9377,72.839,0.1,Allen Garcia
400015,18.9961,72.8528,0.1,Seth Madden
400013,18.9982,72.8275,0.1,Gene Lozano
400033,18.9856,72.8442,0.1,Thomas Fields
400095,19.1888,72.8197,0.1,Keith Johnson
400068,19.2591,72.8338,0.1,Gina Cuevas
400027,18.9793,72.8383,0.1,Grant Guerra
400701,19.125362,72.9992,0.1,Emily Newton
400018,18.9985,72.8174,0.1,Justin Larson
400074,19.029,72.8881,0.1,Heather Anderson
400047,19.1246,72.8422,0.1,Manuel Clark
400091,19.234,72.8399,0.1,Steven Smith
400066,19.2313,72.8635,0.1,Patrick Roberts
400091,19.234,72.8399,0.1,Stacey Hardy
400059,19.1119,72.879,0.1,Noah Campbell
400015,18.9961,72.8528,0.1,Kelly Nelson
400033,18.9856,72.8442,0.1,Daniel Williams
400062,19.1593,72.8427,0.1,Joshua Bush
400024,19.0611,72.8792,0.1,Danielle Wong
400013,18.9982,72.8275,0.1,Jerry Brown
400090,19.1629,72.8353,0.1,Adam Bradley
400042,19.1338,72.9384,0.1,Robert Williams
400095,19.1888,72.8197,0.1,Kathryn Kane
400073,19.0718,72.9168,0.1,Adam Martinez
400036,18.9625,72.805,0.1,Kristin Burch
400053,19.1121,72.8611,0.1,Adam Robinson
400009,18.9583,72.8389,0.1,John Gray
400058,19.1227,72.8302,0.1,John Reed
400006,18.9541,72.8004,0.1,Robert Marshall
400049,19.1047,72.8268,0.1,Rodney Gutierrez
400003,18.9532,72.8353,0.1,John Schultz
400015,18.9961,72.8528,0.1,Linda Gibson
400064,19.1872,72.8407,0.1,Cody Davis
400079,19.1025,72.9254,0.1,Katelyn Olson
400069,19.1178,72.8737,0.1,Kenneth Lyons
400079,19.1025,72.9254,0.1,Jerry Banks
400015,18.9961,72.8528,0.1,Melvin Clark
400080,19.1721,72.9483,0.1,Mark Bell
400615,19.2683,72.971,0.1,Kenneth Moore MD
400028,19.0217,72.8375,0.1,William Gonzalez
400059,19.1119,72.879,0.1,Brad Kirby
400012,18.9995,72.8397,0.1,Ethan Munoz
400012,18.9995,72.8397,0.1,Timothy Stokes
400013,18.9982,72.8275,0.1,Brian Mejia
400090,19.1629,72.8353,0.1,Alan Hensley
400099,19.0929,72.8654,0.1,Zachary Hill
400084,19.0976,72.9032,0.1,Donna Rodriguez
400039,18.9223,72.8312,0.1,Robert Reid
400052,19.0717,72.8341,0.1,David Cobb
400096,19.1267,72.8767,0.1,Jaime Jordan
400050,19.0552,72.83,0.1,David Nielsen
400071,19.0521,72.9007,0.1,Ronald Mata Jr.
400070,19.0741,72.8804,0.1,Valerie Friedman
400050,19.0552,72.83,0.1,Anthony Jones
400018,18.9985,72.8174,0.1,Michelle Alexander DDS
400094,19.0359,72.9247,0.1,John Mcdaniel
400008,18.9671,72.8287,0.1,Shane Perez
400054,19.082,72.8345,0.1,Rodney Mills Jr.
400078,19.157,72.9327,0.1,Joseph Gonzalez
400069,19.1178,72.8737,0.1,Mark Lowe
400089,19.0685,72.9003,0.1,Timothy Cook
400036,18.9625,72.805,0.1,Jessica Walters
400007,18.9618,72.8134,0.1,John Johnson
400021,18.9256,72.8242,0.1,Anne Davis
400004,18.958,72.8214,0.1,Chad Miller
400006,18.9541,72.8004,0.1,Victoria Wilson
400098,19.0718,72.8615,0.1,Breanna Nunez
400018,18.9985,72.8174,0.1,Mr. James Duarte Jr.
400098,19.0718,72.8615,0.1,Joseph Coleman
400033,18.9856,72.8442,0.1,Brittany Wilson
400014,19.0148,72.8455,0.1,Jennifer Conner
400025,19.0158,72.8294,0.1,Keith Palmer
400002,18.9484,72.8259,0.1,Joseph Jenkins
400017,19.0456,72.8537,0.1,William Parker
400045,19.0633,72.9258,0.1,Daniel Hill
400701,19.125362,72.9992,0.1,Casey Kelley
400072,19.1018,72.8904,0.1,Krista Medina
400002,18.9484,72.8259,0.1,Samuel Richards
400097,19.1839,72.8584,0.1,Eugene Allen
400041,19.0172,72.9398,0.1,Louis Miller Jr.
400002,18.9484,72.8259,0.1,Christopher Obrien
400040,19.0636,72.9228,0.1,Craig Harris
400071,19.0521,72.9007,0.1,Jessica Hampton
400014,19.0148,72.8455,0.1,Linda Christensen
400011,18.981,72.8268,0.1,Nathaniel Becker
400083,19.1166,72.9374,0.1,Sonya Luna
400026,18.9706,72.8095,0.1,Jason Thompson
400011,18.981,72.8268,0.1,Joshua Graham
400085,19.0438,72.9121,0.1,Carolyn Ortega
400043,19.0633,72.9258,0.1,Leonard Carter
400098,19.0718,72.8615,0.1,Brittany Padilla
400085,19.0438,72.9121,0.1,Frank Gamble
400081,19.1661,72.9646,0.1,Steven Butler
400053,19.1121,72.8611,0.1,James Montgomery
400036,18.9625,72.805,0.1,Tyler Nunez
400027,18.9793,72.8383,0.1,Thomas Sims
400073,19.0718,72.9168,0.1,Brian Anderson
400066,19.2313,72.8635,0.1,Jonathan Johnson
400015,18.9961,72.8528,0.1,David Allen
400059,19.1119,72.879,0.1,Jordan Mcfarland
400084,19.0976,72.9032,0.1,Ryan Walls
400047,19.1246,72.8422,0.1,Julia Tucker
400024,19.0611,72.8792,0.1,Evan Krueger
400002,18.9484,72.8259,0.1,Robert Watson
400099,19.0929,72.8654,0.1,Jessica Clark
400047,19.1246,72.8422,0.1,Darryl Gay
400089,19.0685,72.9003,0.1,Eric Walker
400060,19.1368,72.8579,0.1,Joseph Green
400085,19.0438,72.9121,0.1,Thomas Brown
400089,19.0685,72.9003,0.1,Aaron Ayala
400041,19.0172,72.9398,0.1,Patrick Woods
400615,19.2683,72.971,0.1,Steven Lawrence
400005,18.9104,72.8198,0.1,Katie Becker
400047,19.1246,72.8422,0.1,Jeffrey Beasley
400020,18.9351,72.8264,0.1,Bradley Lee
400026,18.9706,72.8095,0.1,Mike Thompson
400017,19.0456,72.8537,0.1,James Green
400013,18.9982,72.8275,0.1,William Payne
400064,19.1872,72.8407,0.1,Antonio Hawkins
400029,19.0797,72.8679,0.1,David Alvarez
400032,18.929,72.8301,0.1,Brittany Scott
400062,19.1593,72.8427,0.1,Traci Valencia
400028,19.0217,72.8375,0.1,Mary Mendez
400086,19.0893,72.9078,0.1,Megan Tate
400011,18.981,72.8268,0.1,Elizabeth Moore
400055,19.0804,72.8469,0.1,Alexis Griffin
400071,19.0521,72.9007,0.1,Douglas Thomas
400085,19.0438,72.9121,0.1,Gavin Robinson
400055,19.0804,72.8469,0.1,Micheal Harrison
400069,19.1178,72.8737,0.1,Ricardo Castillo
400048,18.9104,72.8198,0.1,James Garner
400036,18.9625,72.805,0.1,Aaron Daniels
400012,18.9995,72.8397,0.1,Charles Williams
400059,19.1119,72.879,0.1,Anthony Lee
400082,19.1741,72.9372,0.1,Timothy Lambert
400015,18.9961,72.8528,0.1,Marcia Thomas
400042,19.1338,72.9384,0.1,Brittany Smith
400057,19.1007,72.8485,0.1,Benjamin Norton
400051,19.0596,72.8553,0.1,Frances Russell
400096,19.1267,72.8767,0.1,Anita Love
400082,19.1741,72.9372,0.1,Joseph Holt
400043,19.0633,72.9258,0.1,Mark Romero
400056,19.1045,72.8395,0.1,Joshua West
400021,18.9256,72.8242,0.1,Roger Young
400078,19.157,72.9327,0.1,Shane Holmes
400054,19.082,72.8345,0.1,Brittany Hamilton
400093,19.1283,72.8677,0.1,Vernon Harrison
400006,18.9541,72.8004,0.1,Connor Miller
400080,19.1721,72.9483,0.1,Michelle Thomas
400029,19.0797,72.8679,0.1,Edward Smith
400090,19.1629,72.8353,0.1,Taylor Wallace DDS
400033,18.9856,72.8442,0.1,Zachary Reed
400054,19.082,72.8345,0.1,Nathan Harris
400054,19.082,72.8345,0.1,Paul Rose
400095,19.1888,72.8197,0.1,Jeffrey Stevens
400038,18.9377,72.839,0.1,Sarah Jordan
400095,19.1888,72.8197,0.1,Tyler Morris
400009,18.9583,72.8389,0.1,Cheryl Smith
400048,18.9104,72.8198,0.1,Elizabeth Morris
400047,19.1246,72.8422,0.1,Tristan Owens
400009,18.9583,72.8389,0.1,James Richardson
400089,19.0685,72.9003,0.1,Michael Chen
400003,18.9532,72.8353,0.1,Brian Case
400063,19.1648,72.8533,0.1,Nicole Wilson
400095,19.1888,72.8197,0.1,Gary Haley
400097,19.1839,72.8584,0.1,Diana Davis
400095,19.1888,72.8197,0.1,Charles Dixon
400080,19.1721,72.9483,0.1,Terry Aguilar
400092,19.2327,72.7984,0.1,Whitney Waters
400010,18.9702,72.846,0.1,Charles Vaughn
400089,19.0685,72.9003,0.1,Brian Porter
400070,19.0741,72.8804,0.1,Kenneth Thornton
400098,19.0718,72.8615,0.1,Derek Allen
400708,19.157934,72.993477,0.1,Brandi Mack
400708,19.157934,72.993477,0.1,Andres Kemp
400017,19.0456,72.8537,0.1,Jack Coleman
400049,19.1047,72.8268,0.1,Mike Robbins
400013,18.9982,72.8275,0.1,Joseph Allen
400009,18.9583,72.8389,0.1,Brandon Robertson
400044,19.0633,72.9258,0.1,Kevin Browning
400092,19.2327,72.7984,0.1,Johnny Gonzales
400008,18.9671,72.8287,0.1,Diane Poole
400091,19.234,72.8399,0.1,Elizabeth Smith
400021,18.9256,72.8242,0.1,Steven Baker
400004,18.958,72.8214,0.1,James Barajas
400054,19.082,72.8345,0.1,James Taylor
400014,19.0148,72.8455,0.1,James Cook
400057,19.1007,72.8485,0.1,Grace Phillips
400051,19.0596,72.8553,0.1,Troy Rogers
400029,19.0797,72.8679,0.1,Makayla Brown
400073,19.0718,72.9168,0.1,Jessica Burns
400050,19.0552,72.83,0.1,Zachary Lopez
400081,19.1661,72.9646,0.1,Denise Bowen
400019,19.0269,72.8554,0.1,Jackie Reilly
400014,19.0148,72.8455,0.1,Joseph Rodriguez
400022,19.0426,72.8638,0.1,Alexandra Allen
400035,18.9417,72.7936,0.1,Ricardo Melendez
400068,19.2591,72.8338,0.1,Corey Poole
400079,19.1025,72.9254,0.1,Stephanie Wilson
400101,19.2059,72.8661,0.1,Aaron Rodriguez
400044,19.0633,72.9258,0.1,Steven Reynolds
400045,19.0633,72.9258,0.1,Harold Hart
400094,19.0359,72.9247,0.1,Christian Townsend
400064,19.1872,72.8407,0.1,David Moore
400016,19.0389,72.8421,0.1,Michele Powell
400063,19.1648,72.8533,0.1,Brandon Smith
400010,18.9702,72.846,0.1,Beth Edwards
400040,19.0636,72.9228,0.1,Kurt Miller
400079,19.1025,72.9254,0.1,Ryan Cooper
400081,19.1661,72.9646,0.1,William Davidson
400097,19.1839,72.8584,0.1,Ross Turner
400015,18.9961,72.8528,0.1,Andrew Berger
400092,19.2327,72.7984,0.1,James Arnold
400101,19.2059,72.8661,0.1,Barbara Khan
400065,19.1556,72.885,0.1,Jose Fields
400039,18.9223,72.8312,0.1,Willie Rowe
400034,18.9724,72.8148,0.1,Charlotte Webster
400064,19.1872,72.8407,0.1,Patrick Franklin
400016,19.0389,72.8421,0.1,Bradley Ochoa
400095,19.1888,72.8197,0.1,Mark Munoz
400056,19.1045,72.8395,0.1,Edward Swanson
400078,19.157,72.9327,0.1,Elizabeth Snyder
400088,19.0483,72.9288,0.1,John Miller
400004,18.958,72.8214,0.1,Curtis Hill
400034,18.9724,72.8148,0.1,John Buck
400615,19.2683,72.971,0.1,Robert Novak
400087,19.1391,72.8956,0.1,Donald Mason
400031,19.0133,72.8549,0.1,Anna Lopez
400033,18.9856,72.8442,0.1,Andrew Ortega
400057,19.1007,72.8485,0.1,Jennifer Mason
400042,19.1338,72.9384,0.1,Jack Brown
400064,19.1872,72.8407,0.1,Joshua Singleton
400064,19.1872,72.8407,0.1,Diane Parker
400096,19.1267,72.8767,0.1,Olivia Williams
400025,19.0158,72.8294,0.1,Michael Sanders
400085,19.0438,72.9121,0.1,Jonathon Best
400073,19.0718,72.9168,0.1,Janet Guzman
400045,19.0633,72.9258,0.1,Jordan Lopez
400024,19.0611,72.8792,0.1,Holly Wells
400002,18.9484,72.8259,0.1,Isaac Sanford
400075,19.0799,72.9174,0.1,Nathan Nichols
400004,18.958,72.8214,0.1,Jordan Gibson
400067,19.2072,72.8348,0.1,Johnathan Moss
400095,19.1888,72.8197,0.1,Kenneth Sanders
400068,19.2591,72.8338,0.1,James Reyes
400017,19.0456,72.8537,0.1,Jasmine Duncan
400070,19.0741,72.8804,0.1,Kyle Cunningham
400070,19.0741,72.8804,0.1,Elizabeth Curry
400004,18.958,72.8214,0.1,James Johnson
400081,19.1661,72.9646,0.1,Jessica Krueger
400019,19.0269,72.8554,0.1,Justin Cooke
400066,19.2313,72.8635,0.1,John Hoover
400084,19.0976,72.9032,0.1,Phillip Black
400015,18.9961,72.8528,0.1,Melanie Wilson
400003,18.9532,72.8353,0.1,Jared Fitzgerald Jr.
400085,19.0438,72.9121,0.1,Annette Perez
400024,19.0611,72.8792,0.1,Timothy Wright Jr.
400055,19.0804,72.8469,0.1,Matthew Collins
400022,19.0426,72.8638,0.1,Melissa Anderson
400032,18.929,72.8301,0.1,Richard Parrish
400100,19.0929,72.8654,0.1,Patrick Garcia
400084,19.0976,72.9032,0.1,William Bradshaw
400083,19.1166,72.9374,0.1,Sara Salazar
400069,19.1178,72.8737,0.1,Robert Gates
400011,18.981,72.8268,0.1,Crystal Russell
400101,19.2059,72.8661,0.1,Travis Anderson
400029,19.0797,72.8679,0.1,Mr. Stephen Martin
400082,19.1741,72.9372,0.1,Steven Rush
400097,19.1839,72.8584,0.1,Richard Carter
400014,19.0148,72.8455,0.1,Jordan Cooper
400015,18.9961,72.8528,0.1,Scott Gonzales
400003,18.9532,72.8353,0.1,Jasmine Harrison
400036,18.9625,72.805,0.1,Richard Allen
400016,19.0389,72.8421,0.1,Laura Elliott
400020,18.9351,72.8264,0.1,Bruce Foster
400025,19.0158,72.8294,0.1,Jon Solomon
400048,18.9104,72.8198,0.1,Michael Rivera
400067,19.2072,72.8348,0.1,Christopher Edwards
400098,19.0718,72.8615,0.1,Larry Martinez
400064,19.1872,72.8407,0.1,Timothy Waters
400028,19.0217,72.8375,0.1,Brian Anderson
400052,19.0717,72.8341,0.1,Brian Mcdowell
400053,19.1121,72.8611,0.1,Kelly Williams
400078,19.157,72.9327,0.1,Randy Harmon
400048,18.9104,72.8198,0.1,Michael Hubbard
400031,19.0133,72.8549,0.1,Michael Anderson
400039,18.9223,72.8312,0.1,Jeanne Hardy
400053,19.1121,72.8611,0.1,William Williamson
400030,19.0122,72.8219,0.1,Joseph Sanchez
400082,19.1741,72.9372,0.1,Shawn Hahn
400013,18.9982,72.8275,0.1,Robert Love
400092,19.2327,72.7984,0.1,Justin Lambert
400100,19.0929,72.8654,0.1,Sarah Rogers
400027,18.9793,72.8383,0.1,David Peck
400023,18.9321,72.8323,0.1,Jill Murphy
400002,18.9484,72.8259,0.1,Steven Salinas
400016,19.0389,72.8421,0.1,Joseph Richard
400042,19.1338,72.9384,0.1,Curtis Spencer
400044,19.0633,72.9258,0.1,Karl Goodwin
400051,19.0596,72.8553,0.1,Arthur Gilbert
400006,18.9541,72.8004,0.1,James Wise
400056,19.1045,72.8395,0.1,Christine Fitzgerald
400048,18.9104,72.8198,0.1,Edward Rodriguez
400073,19.0718,72.9168,0.1,Alexandra Medina
400033,18.9856,72.8442,0.1,John Fletcher
400043,19.0633,72.9258,0.1,Traci Smith
400033,18.9856,72.8442,0.1,Mrs. Lisa Lee MD
400028,19.0217,72.8375,0.1,Jacob Berry
400033,18.9856,72.8442,0.1,Casey Hess
400065,19.1556,72.885,0.1,Laurie Johnson
400061,19.1427,72.8053,0.1,Mary Barton
400065,19.1556,72.885,0.1,Richard Griffin
400087,19.1391,72.8956,0.1,Brian Barnes II
400043,19.0633,72.9258,0.1,Brent Medina
400078,19.157,72.9327,0.1,Caleb Krueger
400068,19.2591,72.8338,0.1,Andre Scott
400071,19.0521,72.9007,0.1,Shannon Garcia
400012,18.9995,72.8397,0.1,Todd Beltran
400032,18.929,72.8301,0.1,Mark Jones
400017,19.0456,72.8537,0.1,Thomas Kent
400073,19.0718,72.9168,0.1,Paul Dawson
400099,19.0929,72.8654,0.1,Alex Shaffer
400032,18.929,72.8301,0.1,Jessica Robertson
400056,19.1045,72.8395,0.1,Lisa Garcia
400031,19.0133,72.8549,0.1,Mark Johnson
400094,19.0359,72.9247,0.1,Phyllis Haynes
400050,19.0552,72.83,0.1,Joseph Jones
400023,18.9321,72.8323,0.1,Derrick Gregory
400004,18.958,72.8214,0.1,Sabrina Morrison
400071,19.0521,72.9007,0.1,Jeremy Douglas
400040,19.0636,72.9228,0.1,Connie Todd
400088,19.0483,72.9288,0.1,Bobby Davenport
400055,19.0804,72.8469,0.1,Jason Adams
400065,19.1556,72.885,0.1,Donald Glover
400073,19.0718,72.9168,0.1,Charles Gutierrez
400615,19.2683,72.971,0.1,Zachary Black
400090,19.1629,72.8353,0.1,Robert Matthews
400071,19.0521,72.9007,0.1,Christopher Sanford
400051,19.0596,72.8553,0.1,Terry Larson
400068,19.2591,72.8338,0.1,Scott Ortiz
400010,18.9702,72.846,0.1,Matthew Williams
400039,18.9223,72.8312,0.1,Dorothy Lane
400072,19.1018,72.8904,0.1,Richard Howell
400031,19.0133,72.8549,0.1,Jeremy Bautista
400019,19.0269,72.8554,0.1,Matthew Grant
400035,18.9417,72.7936,0.1,David Spencer
400098,19.0718,72.8615,0.1,Jeff Drake
400065,19.1556,72.885,0.1,Tracey Hanna
400047,19.1246,72.8422,0.1,Christopher Jacobson
400066,19.2313,72.8635,0.1,Erin Ruiz
400002,18.9484,72.8259,0.1,Jacob Moody PhD
400003,18.9532,72.8353,0.1,Alejandro Wiggins
400018,18.9985,72.8174,0.1,Amy Williams
400086,19.0893,72.9078,0.1,Pamela Daniels
400708,19.157934,72.993477,0.1,Shelley Hamilton
400003,18.9532,72.8353,0.1,Sydney Cooper
400022,19.0426,72.8638,0.1,Mary Hunter
400080,19.1721,72.9483,0.1,Terry Lam
400045,19.0633,72.9258,0.1,Brian Singleton
400066,19.2313,72.8635,0.1,Mia Ellis
400040,19.0636,72.9228,0.1,Glenn Spence
400095,19.1888,72.8197,0.1,Amanda Simon
400015,18.9961,72.8528,0.1,Michael Hoover
400024,19.0611,72.8792,0.1,John Sosa
400073,19.0718,72.9168,0.1,Joshua Zuniga
400034,18.9724,72.8148,0.1,Derek Brooks
400097,19.1839,72.8584,0.1,Chris Flores
400090,19.1629,72.8353,0.1,Kyle Strickland
400069,19.1178,72.8737,0.1,Amy Marquez MD
400054,19.082,72.8345,0.1,David Brown
400014,19.0148,72.8455,0.1,Julia Webster
400028,19.0217,72.8375,0.1,Natalie Robinson
400075,19.0799,72.9174,0.1,Brandon Harris
400095,19.1888,72.8197,0.1,Timothy Hays
400039,18.9223,72.8312,0.1,John Davis PhD
400062,19.1593,72.8427,0.1,Kent Douglas
400092,19.2327,72.7984,0.1,Grace Mejia
400043,19.0633,72.9258,0.1,Michael Monroe
400054,19.082,72.8345,0.1,Anna Simpson
400009,18.9583,72.8389,0.1,Mary Bass
400091,19.234,72.8399,0.1,Valerie Stanley
400007,18.9618,72.8134,0.1,William Zavala
400041,19.0172,72.9398,0.1,Pedro Anderson
400098,19.0718,72.8615,0.1,Michael Shannon
400031,19.0133,72.8549,0.1,Kevin Calderon
400091,19.234,72.8399,0.1,Michael Leonard
400077,19.0779,72.9056,0.1,Charles Wheeler
400097,19.1839,72.8584,0.1,Johnny Cisneros
400038,18.9377,72.839,0.1,Joshua Hardy
400033,18.9856,72.8442,0.1,Harry Ruiz
400008,18.9671,72.8287,0.1,Christopher Bates
400018,18.9985,72.8174,0.1,Charles Smith
400037,19.0257,72.8697,0.1,Paul Simmons
400073,19.0718,72.9168,0.1,Kyle Morrow
400072,19.1018,72.8904,0.1,Gregory Bentley
400088,19.0483,72.9288,0.1,Sara Rivers
400006,18.9541,72.8004,0.1,Michael Johnson
400078,19.157,72.9327,0.1,Christopher Wagner
400036,18.9625,72.805,0.1,Jamie Mendoza
400074,19.029,72.8881,0.1,Jacqueline Rivera
400099,19.0929,72.8654,0.1,Gordon Koch
400055,19.0804,72.8469,0.1,Christopher Hart
400077,19.0779,72.9056,0.1,Carrie Kidd
400076,19.1239,72.9094,0.1,Jason Welch
400068,19.2591,72.8338,0.1,Jesus Moore
400075,19.0799,72.9174,0.1,Michael Aguilar
400072,19.1018,72.8904,0.1,Haley Schwartz
400069,19.1178,72.8737,0.1,David Anderson
400051,19.0596,72.8553,0.1,Chad Carlson
400093,19.1283,72.8677,0.1,Jeremy Freeman Jr.
400037,19.0257,72.8697,0.1,Jerry Arnold
400001,18.9385,72.8363,0.1,Susan Robinson
400010,18.9702,72.846,0.1,Kelly Williams
400034,18.9724,72.8148,0.1,Rebecca Cummings
400064,19.1872,72.8407,0.1,Gary Thomas
400057,19.1007,72.8485,0.1,Jeffrey Holden
400099,19.0929,72.8654,0.1,John Price
400093,19.1283,72.8677,0.1,David Estrada
400014,19.0148,72.8455,0.1,David Gibson
400010,18.9702,72.846,0.1,Roberto Conrad
400051,19.0596,72.8553,0.1,Anthony Lynch
400069,19.1178,72.8737,0.1,Mark Robinson
400044,19.0633,72.9258,0.1,David Marshall
400016,19.0389,72.8421,0.1,Charles Ortega
400013,18.9982,72.8275,0.1,Mr. Richard Allen Jr.
400087,19.1391,72.8956,0.1,Dr. Kenneth Roach
400050,19.0552,72.83,0.1,Evan Mason
400087,19.1391,72.8956,0.1,Dawn Moore
400093,19.1283,72.8677,0.1,Robert Richard
400051,19.0596,72.8553,0.1,Christopher Lee
400028,19.0217,72.8375,0.1,Lisa Ross
400099,19.0929,72.8654,0.1,Samantha Riley
400049,19.1047,72.8268,0.1,David Lowery
400015,18.9961,72.8528,0.1,Jermaine Johnson
400049,19.1047,72.8268,0.1,Joseph Abbott
400011,18.981,72.8268,0.1,James Rios
400010,18.9702,72.846,0.1,Michelle Murray
400101,19.2059,72.8661,0.1,Charles Gonzalez
400017,19.0456,72.8537,0.1,Melissa Wilkerson
400061,19.1427,72.8053,0.1,Laura Alexander
400059,19.1119,72.879,0.1,Tina Salinas
400050,19.0552,72.83,0.1,Stephanie Martin
400002,18.9484,72.8259,0.1,Maria Johnson
400615,19.2683,72.971,0.1,Ryan Marquez
400038,18.9377,72.839,0.1,James Morton
400007,18.9618,72.8134,0.1,David Vargas
400006,18.9541,72.8004,0.1,Robert Rowe
400050,19.0552,72.83,0.1,Nathaniel Silva
400020,18.9351,72.8264,0.1,Allen Thomas
400030,19.0122,72.8219,0.1,Donald Burke
400099,19.0929,72.8654,0.1,Marc Butler
400048,18.9104,72.8198,0.1,Carol Wood
400004,18.958,72.8214,0.1,Andrew Davis
400041,19.0172,72.9398,0.1,Brian King
400090,19.1629,72.8353,0.1,Jose Arias
400039,18.9223,72.8312,0.1,April Todd
400048,18.9104,72.8198,0.1,William Davis
400708,19.157934,72.993477,0.1,Andrew Matthews
400033,18.9856,72.8442,0.1,Heather Horton
400074,19.029,72.8881,0.1,Tammy Ryan
400060,19.1368,72.8579,0.1,Jenny Hill
400013,18.9982,72.8275,0.1,Catherine Miller
400049,19.1047,72.8268,0.1,Laura Stout
400099,19.0929,72.8654,0.1,Joseph Smith
400031,19.0133,72.8549,0.1,Jacqueline Jensen
400067,19.2072,72.8348,0.1,Walter Guerrero
400022,19.0426,72.8638,0.1,Bradley Gallagher
400091,19.234,72.8399,0.1,Danielle Osborne
400040,19.0636,72.9228,0.1,Jim Webb
400079,19.1025,72.9254,0.1,William King
400010,18.9702,72.846,0.1,Joshua Murphy
400066,19.2313,72.8635,0.1,James Harris
400003,18.9532,72.8353,0.1,William Morgan
400035,18.9417,72.7936,0.1,Cody Goodman DDS
400082,19.1741,72.9372,0.1,Kenneth Welch
400009,18.9583,72.8389,0.1,Teresa Perez
400034,18.9724,72.8148,0.1,Michelle Gross
400070,19.0741,72.8804,0.1,Angela Williams
400018,18.9985,72.8174,0.1,Phillip Parks
400051,19.0596,72.8553,0.1,David Mata
400010,18.9702,72.846,0.1,Matthew Small
400006,18.9541,72.8004,0.1,Jacob Holt
400024,19.0611,72.8792,0.1,Elizabeth Turner
400069,19.1178,72.8737,0.1,James Obrien
400020,18.9351,72.8264,0.1,Paula Rodriguez
400091,19.234,72.8399,0.1,Mitchell Lopez
400033,18.9856,72.8442,0.1,John Stewart
400038,18.9377,72.839,0.1,Dustin Wilson
400089,19.0685,72.9003,0.1,Jason Johnson
400064,19.1872,72.8407,0.1,Theodore Lyons
400097,19.1839,72.8584,0.1,Colleen Martin
400050,19.0552,72.83,0.1,Joseph Smith
400088,19.0483,72.9288,0.1,Joy Williams
400100,19.0929,72.8654,0.1,Colin Simmons
400089,19.0685,72.9003,0.1,Steven Oliver
400098,19.0718,72.8615,0.1,Jennifer Joseph
400082,19.1741,72.9372,0.1,Pamela Bishop
400099,19.0929,72.8654,0.1,Kristen Hudson
400092,19.2327,72.7984,0.1,Nicholas Thornton
400094,19.0359,72.9247,0.1,Ryan Long
400039,18.9223,72.8312,0.1,William Wells
400005,18.9104,72.8198,0.1,Peter Sanders
400007,18.9618,72.8134,0.1,Shane Brown
400073,19.0718,72.9168,0.1,Julie Best
400048,18.9104,72.8198,0.1,Edward Jacobs
400027,18.9793,72.8383,0.1,Leah Freeman MD
400076,19.1239,72.9094,0.1,Sean Ferguson
400030,19.0122,72.8219,0.1,Kendra Owens
400045,19.0633,72.9258,0.1,Marcus Nelson
400054,19.082,72.8345,0.1,Joel Russell
400009,18.9583,72.8389,0.1,Jason Coleman
400015,18.9961,72.8528,0.1,Stephen Jones
400100,19.0929,72.8654,0.1,Cynthia Montgomery
400006,18.9541,72.8004,0.1,Kevin Williams
400071,19.0521,72.9007,0.1,Mary Rivera
400057,19.1007,72.8485,0.1,Adam Horn
400073,19.0718,72.9168,0.1,Melissa Watson
400089,19.0685,72.9003,0.1,Thomas Lewis
400019,19.0269,72.8554,0.1,Miss Bianca Fernandez MD
400047,19.1246,72.8422,0.1,Gary Clark
400052,19.0717,72.8341,0.1,Tonya Jones
400068,19.2591,72.8338,0.1,Emily Butler
400035,18.9417,72.7936,0.1,Jennifer Williamson
400042,19.1338,72.9384,0.1,David Castillo
400093,19.1283,72.8677,0.1,Andrew Walker PhD
400036,18.9625,72.805,0.1,Andrew Smith
400052,19.0717,72.8341,0.1,Antonio Baker
400033,18.9856,72.8442,0.1,Nicholas Porter
400050,19.0552,72.83,0.1,Scott Herman
400051,19.0596,72.8553,0.1,Andrew Brewer
400096,19.1267,72.8767,0.1,Robert Henson
400013,18.9982,72.8275,0.1,Nancy Finley
400032,18.929,72.8301,0.1,Julia Harvey
400079,19.1025,72.9254,0.1,Clayton Miller
400011,18.981,72.8268,0.1,Robert Fernandez
400019,19.0269,72.8554,0.1,Justin Alexander
400043,19.0633,72.9258,0.1,Casey Lucas
400053,19.1121,72.8611,0.1,Alexandra Simpson
400006,18.9541,72.8004,0.1,Joshua Jacobson
400049,19.1047,72.8268,0.1,Raymond Farley
400018,18.9985,72.8174,0.1,Jeffrey Salas
400021,18.9256,72.8242,0.1,Jason Summers
400079,19.1025,72.9254,0.1,Steven Matthews
400019,19.0269,72.8554,0.1,David Woodward
400091,19.234,72.8399,0.1,Ryan Higgins
400039,18.9223,72.8312,0.1,Jaclyn Logan
400002,18.9484,72.8259,0.1,Tom Erickson
400072,19.1018,72.8904,0.1,Briana Hill
400001,18.9385,72.8363,0.1,Mr. David Acosta
400018,18.9985,72.8174,0.1,Allen Mclean
400042,19.1338,72.9384,0.1,Nicole Yates
400004,18.958,72.8214,0.1,Barry Williams
400010,18.9702,72.846,0.1,Kurt Knapp
400020,18.9351,72.8264,0.1,Alan Morales
400048,18.9104,72.8198,0.1,Keith Crawford
400059,19.1119,72.879,0.1,Charles Melton
400018,18.9985,72.8174,0.1,Scott Wheeler
400075,19.0799,72.9174,0.1,Michael Norton
400036,18.9625,72.805,0.1,Miranda Smith
400008,18.9671,72.8287,0.1,Cheryl Hunter
400042,19.1338,72.9384,0.1,David Anderson
400615,19.2683,72.971,0.1,Shawna Pratt
400058,19.1227,72.8302,0.1,Charles Hunter
400022,19.0426,72.8638,0.1,Mary Rodriguez
400033,18.9856,72.8442,0.1,Jared Williamson
400059,19.1119,72.879,0.1,Robert Murray
400061,19.1427,72.8053,0.1,Justin Fields
400002,18.9484,72.8259,0.1,Edward Dunn
400032,18.929,72.8301,0.1,Christopher Griffin
400080,19.1721,72.9483,0.1,Daniel Smith
400007,18.9618,72.8134,0.1,Joseph Green
400055,19.0804,72.8469,0.1,Ian Morris
400032,18.929,72.8301,0.1,Daryl Rowe
400080,19.1721,72.9483,0.1,Wanda Munoz
400052,19.0717,72.8341,0.1,Susan Brock
400019,19.0269,72.8554,0.1,Richard Sloan
400081,19.1661,72.9646,0.1,Amy Phillips DDS
400015,18.9961,72.8528,0.1,Lori Vaughn
400041,19.0172,72.9398,0.1,Benjamin Welch
400032,18.929,72.8301,0.1,Charles Collins
400069,19.1178,72.8737,0.1,Noah Mayo
400035,18.9417,72.7936,0.1,William Ward
400085,19.0438,72.9121,0.1,Jonathan Williams
400044,19.0633,72.9258,0.1,Eric Gonzales
400011,18.981,72.8268,0.1,Allison Bridges
400024,19.0611,72.8792,0.1,Connor Doyle
400074,19.029,72.8881,0.1,Andrew Adams
400035,18.9417,72.7936,0.1,Christopher Owens
400024,19.0611,72.8792,0.1,Joseph Russell
400036,18.9625,72.805,0.1,Jeffrey Rodriguez
400023,18.9321,72.8323,0.1,Cody Martin
400019,19.0269,72.8554,0.1,Mark Pearson
400050,19.0552,72.83,0.1,Sarah Lopez
400080,19.1721,72.9483,0.1,Kevin Sanders
400072,19.1018,72.8904,0.1,Patrick Sanchez
400035,18.9417,72.7936,0.1,Ryan Johnson
400057,19.1007,72.8485,0.1,Brian Miller
400040,19.0636,72.9228,0.1,Keith Castillo
400056,19.1045,72.8395,0.1,Hunter Fernandez
400033,18.9856,72.8442,0.1,Scott Burke
400009,18.9583,72.8389,0.1,Ashley Reyes
400084,19.0976,72.9032,0.1,Mary Kelly
400069,19.1178,72.8737,0.1,Karen Rodriguez
400068,19.2591,72.8338,0.1,Erin Zhang
400012,18.9995,72.8397,0.1,Nancy Newman
400063,19.1648,72.8533,0.1,Paula Brown
400030,19.0122,72.8219,0.1,David Ward
400006,18.9541,72.8004,0.1,Joseph Hutchinson
400071,19.0521,72.9007,0.1,Matthew Gutierrez
400099,19.0929,72.8654,0.1,Michael Wilkerson
400022,19.0426,72.8638,0.1,Allen Tucker
400084,19.0976,72.9032,0.1,Clifford Wright
400055,19.0804,72.8469,0.1,Terry Caldwell
400099,19.0929,72.8654,0.1,Michael Richardson
400093,19.1283,72.8677,0.1,Phillip Kelley
400090,19.1629,72.8353,0.1,Emily Campos
400044,19.0633,72.9258,0.1,Laura Adams
400064,19.1872,72.8407,0.1,Derek Martin
400056,19.1045,72.8395,0.1,Cynthia Woodward
400031,19.0133,72.8549,0.1,Alexandria Rodriguez
400040,19.0636,72.9228,0.1,Eric Matthews
400037,19.0257,72.8697,0.1,David Doyle
400098,19.0718,72.8615,0.1,Joshua Hayes
400074,19.029,72.8881,0.1,Walter Mckay
400018,18.9985,72.8174,0.1,Daniel Reynolds
400074,19.029,72.8881,0.1,Natalie Leonard
400046,19.1367,72.8109,0.1,Nicholas Simmons
400062,19.1593,72.8427,0.1,Robert Mcgee
400075,19.0799,72.9174,0.1,Danielle Ramirez
400087,19.1391,72.8956,0.1,Charles Dunn
400053,19.1121,72.8611,0.1,Kayla Shah
400074,19.029,72.8881,0.1,Joshua Parks
400065,19.1556,72.885,0.1,Ricky Clayton
400034,18.9724,72.8148,0.1,Brandon Davis
400047,19.1246,72.8422,0.1,Robert Allen
400012,18.9995,72.8397,0.1,Julie Armstrong
400018,18.9985,72.8174,0.1,Jason King
400053,19.1121,72.8611,0.1,Stacie Macdonald
400055,19.0804,72.8469,0.1,Anita Andrews
400072,19.1018,72.8904,0.1,Kevin Crane
400086,19.0893,72.9078,0.1,Robert Miller
400095,19.1888,72.8197,0.1,Paul Williams
400001,18.9385,72.8363,0.1,Alexander Moore
400081,19.1661,72.9646,0.1,Christine Guerrero
400051,19.0596,72.8553,0.1,Thomas Garcia
400007,18.9618,72.8134,0.1,Amber Lopez
400053,19.1121,72.8611,0.1,Ryan Fitzgerald
400006,18.9541,72.8004,0.1,Troy Hayden
400013,18.9982,72.8275,0.1,Diane Sanchez
400025,19.0158,72.8294,0.1,Wyatt Curtis
400031,19.0133,72.8549,0.1,Patrick Merritt
400076,19.1239,72.9094,0.1,John Williams
400065,19.1556,72.885,0.1,John Li
400087,19.1391,72.8956,0.1,Dawn Schroeder
400060,19.1368,72.8579,0.1,Eric Turner
400094,19.0359,72.9247,0.1,Michael Hayes
400064,19.1872,72.8407,0.1,Juan Wiley
400076,19.1239,72.9094,0.1,Michael Roberts
400064,19.1872,72.8407,0.1,Mitchell King
400080,19.1721,72.9483,0.1,Timothy Griffin
400013,18.9982,72.8275,0.1,Daniel Hale
400099,19.0929,72.8654,0.1,Megan Wood
400052,19.0717,72.8341,0.1,Jaime Mcdonald
400053,19.1121,72.8611,0.1,Xavier Villa
400021,18.9256,72.8242,0.1,Jeremy Adams
400043,19.0633,72.9258,0.1,Andrew Taylor
400020,18.9351,72.8264,0.1,Brandon Ortega
400018,18.9985,72.8174,0.1,Tiffany Hill
400088,19.0483,72.9288,0.1,James Powell
400615,19.2683,72.971,0.1,Julie Lynch
400002,18.9484,72.8259,0.1,Amber Gonzalez
400060,19.1368,72.8579,0.1,Christopher Lambert
400019,19.0269,72.8554,0.1,Rebekah Sosa
400002,18.9484,72.8259,0.1,Kelly Hanson
400095,19.1888,72.8197,0.1,Joseph Grant
400044,19.0633,72.9258,0.1,Amy Bryant
400095,19.1888,72.8197,0.1,Craig Snyder
400060,19.1368,72.8579,0.1,Ian Butler
400069,19.1178,72.8737,0.1,Dr. Yvette Lambert
400089,19.0685,72.9003,0.1,Kevin Bentley
400057,19.1007,72.8485,0.1,Nicholas Hansen
400095,19.1888,72.8197,0.1,Daniel Holland
400089,19.0685,72.9003,0.1,William Powell
400029,19.0797,72.8679,0.1,Kenneth Hampton
400016,19.0389,72.8421,0.1,Jessica Lin
400074,19.029,72.8881,0.1,Brian Bullock
400079,19.1025,72.9254,0.1,Christine Ramirez
400068,19.2591,72.8338,0.1,Troy Thompson
400086,19.0893,72.9078,0.1,Thomas Montgomery
400081,19.1661,72.9646,0.1,John Lee
400025,19.0158,72.8294,0.1,John Elliott
400032,18.929,72.8301,0.1,Robert Nash
400060,19.1368,72.8579,0.1,Frank Rojas
400095,19.1888,72.8197,0.1,Debra Vasquez
400028,19.0217,72.8375,0.1,Tyler Bautista
400075,19.0799,72.9174,0.1,Calvin Rosales
400047,19.1246,72.8422,0.1,Jennifer Houston
400005,18.9104,72.8198,0.1,Timothy Wilson
400088,19.0483,72.9288,0.1,Johnny Abbott
400101,19.2059,72.8661,0.1,Fred Lawson
400088,19.0483,72.9288,0.1,Michael Meadows
400043,19.0633,72.9258,0.1,Amanda Murray
400056,19.1045,72.8395,0.1,Paul Jackson
400087,19.1391,72.8956,0.1,Darrell Carpenter
400048,18.9104,72.8198,0.1,Joseph Manning
400003,18.9532,72.8353,0.1,Gary Griffin
400066,19.2313,72.8635,0.1,Devon Johnson
400007,18.9618,72.8134,0.1,Helen Lopez
400708,19.157934,72.993477,0.1,Derrick Nichols
400007,18.9618,72.8134,0.1,April Allen
400073,19.0718,72.9168,0.1,Keith Price
400042,19.1338,72.9384,0.1,Bruce Ramos
400060,19.1368,72.8579,0.1,Catherine Williams
400027,18.9793,72.8383,0.1,Jamie Kent
400061,19.1427,72.8053,0.1,Todd Harvey
400014,19.0148,72.8455,0.1,Robert Green
400065,19.1556,72.885,0.1,Kimberly Sullivan
400034,18.9724,72.8148,0.1,Edwin Dawson
400021,18.9256,72.8242,0.1,Mrs. Kari Fisher
400084,19.0976,72.9032,0.1,Ryan Young
400063,19.1648,72.8533,0.1,Brandon Phillips
400073,19.0718,72.9168,0.1,Albert Tucker
400070,19.0741,72.8804,0.1,Mark Ball
400067,19.2072,72.8348,0.1,Brian Walter
400049,19.1047,72.8268,0.1,Bryan Wilkinson
400009,18.9583,72.8389,0.1,Angela Nunez
400014,19.0148,72.8455,0.1,Mark Dillon
400056,19.1045,72.8395,0.1,Karen Pope
400074,19.029,72.8881,0.1,James Cooper
400090,19.1629,72.8353,0.1,Cynthia Hughes
400062,19.1593,72.8427,0.1,Robert Hall
400030,19.0122,72.8219,0.1,Paul Woodard
400090,19.1629,72.8353,0.1,Ronnie Bailey
400068,19.2591,72.8338,0.1,Linda Aguilar
400099,19.0929,72.8654,0.1,Anthony Burton
400011,18.981,72.8268,0.1,Kelly Bryant
400071,19.0521,72.9007,0.1,Gary Rollins
400013,18.9982,72.8275,0.1,Dylan Howard
400065,19.1556,72.885,0.1,Erin Young
400085,19.0438,72.9121,0.1,Lee Walters
400074,19.029,72.8881,0.1,Shane Shah
400077,19.0779,72.9056,0.1,Ricky Velasquez
400021,18.9256,72.8242,0.1,Emily Melendez
400009,18.9583,72.8389,0.1,Benjamin Lynch
400034,18.9724,72.8148,0.1,Beverly Carter
400005,18.9104,72.8198,0.1,Curtis Scott
400072,19.1018,72.8904,0.1,Joshua Gomez
400032,18.929,72.8301,0.1,Todd Walker
400059,19.1119,72.879,0.1,Dennis Sandoval
400062,19.1593,72.8427,0.1,Larry Paul
400015,18.9961,72.8528,0.1,Jason Pena
400066,19.2313,72.8635,0.1,Jessica Jones
400040,19.0636,72.9228,0.1,Matthew Young
400092,19.2327,72.7984,0.1,Mary Patterson
400012,18.9995,72.8397,0.1,Daniel Smith
400069,19.1178,72.8737,0.1,David Carlson
400034,18.9724,72.8148,0.1,Ronnie Stewart
400086,19.0893,72.9078,0.1,Jerry White
400036,18.9625,72.805,0.1,Gregory Turner
400055,19.0804,72.8469,0.1,Chad Johnson
400017,19.0456,72.8537,0.1,Scott Payne
400083,19.1166,72.9374,0.1,Daniel Faulkner
400070,19.0741,72.8804,0.1,Jorge Gray
400082,19.1741,72.9372,0.1,Kenneth Villegas
400051,19.0596,72.8553,0.1,Richard Rodriguez
400039,18.9223,72.8312,0.1,Mr. Ian Walker
400001,18.9385,72.8363,0.1,Lisa Mueller
400086,19.0893,72.9078,0.1,Robert Riggs
400022,19.0426,72.8638,0.1,Gregory Cervantes
400026,18.9706,72.8095,0.1,Kenneth Ramsey
400061,19.1427,72.8053,0.1,William Perry
400031,19.0133,72.8549,0.1,Joshua Cox
400044,19.0633,72.9258,0.1,Holly Tucker
400046,19.1367,72.8109,0.1,William Campbell
400070,19.0741,72.8804,0.1,Cheryl Edwards
400045,19.0633,72.9258,0.1,Billy Dunlap
400072,19.1018,72.8904,0.1,Philip Perez
400062,19.1593,72.8427,0.1,Christopher Jenkins
400078,19.157,72.9327,0.1,Jason Ryan
400089,19.0685,72.9003,0.1,Kenneth Pearson
400005,18.9104,72.8198,0.1,Juan Romero
400615,19.2683,72.971,0.1,Monica Barnes
400098,19.0718,72.8615,0.1,Scott Smith
400033,18.9856,72.8442,0.1,Sally Gonzales
400070,19.0741,72.8804,0.1,Patrick Hall
400056,19.1045,72.8395,0.1,Kelly Roberson
400086,19.0893,72.9078,0.1,Shelby Mitchell
400026,18.9706,72.8095,0.1,Donald Hensley
400079,19.1025,72.9254,0.1,Robert Adams
400059,19.1119,72.879,0.1,Donna Lynch
400010,18.9702,72.846,0.1,Cassidy Santiago
400051,19.0596,72.8553,0.1,Bryan Burns
400045,19.0633,72.9258,0.1,Dominic Harmon
400026,18.9706,72.8095,0.1,Kyle Vega
400078,19.157,72.9327,0.1,Logan Owens
400059,19.1119,72.879,0.1,Daniel Price
400079,19.1025,72.9254,0.1,Tracy Glover
400024,19.0611,72.8792,0.1,Jonathan Davis
400032,18.929,72.8301,0.1,Andrew Wade
400063,19.1648,72.8533,0.1,Arthur Burns
400028,19.0217,72.8375,0.1,Joseph Reyes
400079,19.1025,72.9254,0.1,Mr. Michael Wilson
400078,19.157,72.9327,0.1,Ashley Prince
400096,19.1267,72.8767,0.1,Gina Williams
400046,19.1367,72.8109,0.1,David Moore II
400100,19.0929,72.8654,0.1,Elizabeth Kelly
400075,19.0799,72.9174,0.1,Frank Dixon
400039,18.9223,72.8312,0.1,Jon Jackson
400021,18.9256,72.8242,0.1,Patricia Walsh
400051,19.0596,72.8553,0.1,Chase Armstrong
400092,19.2327,72.7984,0.1,Stephanie Lynch
400087,19.1391,72.8956,0.1,Albert Larsen
400019,19.0269,72.8554,0.1,Brandon Ross
400050,19.0552,72.83,0.1,Ethan Mcguire
400067,19.2072,72.8348,0.1,Frederick Stephenson
400034,18.9724,72.8148,0.1,William Camacho
400067,19.2072,72.8348,0.1,Jesse Galloway
400044,19.0633,72.9258,0.1,Bobby Schultz
400071,19.0521,72.9007,0.1,James Cooper
400094,19.0359,72.9247,0.1,Wesley Barnes
400063,19.1648,72.8533,0.1,William Armstrong
400090,19.1629,72.8353,0.1,Erica Collins
400032,18.929,72.8301,0.1,William Sheppard
400035,18.9417,72.7936,0.1,Bryan Delgado
400090,19.1629,72.8353,0.1,Robert Cunningham
400087,19.1391,72.8956,0.1,Marc Murray
400051,19.0596,72.8553,0.1,Scott Fleming
400020,18.9351,72.8264,0.1,Courtney Brown
400063,19.1648,72.8533,0.1,Gary Cruz
400043,19.0633,72.9258,0.1,Sarah Macias
400067,19.2072,72.8348,0.1,Mr. Bruce Carter MD
400095,19.1888,72.8197,0.1,Edward Mcfarland
400033,18.9856,72.8442,0.1,Alexis Flores
400047,19.1246,72.8422,0.1,Lindsay Mcpherson
400060,19.1368,72.8579,0.1,Rachel Scott
400035,18.9417,72.7936,0.1,Elizabeth Clark
400061,19.1427,72.8053,0.1,Stephanie Nguyen
400033,18.9856,72.8442,0.1,Nathan Ryan
400095,19.1888,72.8197,0.1,Bill Taylor
400052,19.0717,72.8341,0.1,Heather Frazier
400079,19.1025,72.9254,0.1,Steven Phillips DDS
400015,18.9961,72.8528,0.1,Christine Richmond
400088,19.0483,72.9288,0.1,Billy Allen
400077,19.0779,72.9056,0.1,Stephen Nolan
400099,19.0929,72.8654,0.1,Juan Baker
400038,18.9377,72.839,0.1,Chase Barry
400064,19.1872,72.8407,0.1,Walter Murphy
400072,19.1018,72.8904,0.1,Jacob Mccann
400050,19.0552,72.83,0.1,Gabriella Garcia MD
400045,19.0633,72.9258,0.1,Raymond Smith
400094,19.0359,72.9247,0.1,Heather Rodriguez
400021,18.9256,72.8242,0.1,Michelle Grimes
400009,18.9583,72.8389,0.1,Lance Ferguson
400065,19.1556,72.885,0.1,Christopher Burton
400101,19.2059,72.8661,0.1,Timothy Ross
400100,19.0929,72.8654,0.1,Joseph Smith
400053,19.1121,72.8611,0.1,Jean Harris
400014,19.0148,72.8455,0.1,William Watson
400025,19.0158,72.8294,0.1,Kelsey Cooper
400002,18.9484,72.8259,0.1,Latoya Mcdonald
400020,18.9351,72.8264,0.1,Christina Graham
400038,18.9377,72.839,0.1,Kevin Chavez
400034,18.9724,72.8148,0.1,Matthew Perez
400051,19.0596,72.8553,0.1,David Jones
400026,18.9706,72.8095,0.1,James Mckenzie
400084,19.0976,72.9032,0.1,Jonathan Brewer
400023,18.9321,72.8323,0.1,Daniel Ball
400031,19.0133,72.8549,0.1,Joshua Johnson
400097,19.1839,72.8584,0.1,Robert Wilson
400057,19.1007,72.8485,0.1,Jerry Mason
400090,19.1629,72.8353,0.1,Anthony Price
400031,19.0133,72.8549,0.1,Jonathan Rodriguez
400021,18.9256,72.8242,0.1,Steven Zamora
400035,18.9417,72.7936,0.1,Nicholas Perez
400067,19.2072,72.8348,0.1,James Stanley
400025,19.0158,72.8294,0.1,Alexis Kelly
400708,19.157934,72.993477,0.1,Tyler Dunn
400087,19.1391,72.8956,0.1,Eric Ball
400092,19.2327,72.7984,0.1,Nicholas Mcgee
400001,18.9385,72.8363,0.1,Sandra Miller
400101,19.2059,72.8661,0.1,Jordan Davis
400031,19.0133,72.8549,0.1,Timothy Robinson
400082,19.1741,72.9372,0.1,Molly Lucas
400023,18.9321,72.8323,0.1,Michael Carrillo
400098,19.0718,72.8615,0.1,John Weber
400004,18.958,72.8214,0.1,Brian Beasley
400088,19.0483,72.9288,0.1,Susan Chavez
400036,18.9625,72.805,0.1,Jack Becker
400030,19.0122,72.8219,0.1,Jonathan Kemp
400013,18.9982,72.8275,0.1,Daniel Alexander
400075,19.0799,72.9174,0.1,James Campos
400030,19.0122,72.8219,0.1,Emily Williams
400011,18.981,72.8268,0.1,Kimberly Jones
400044,19.0633,72.9258,0.1,Doris Mcgrath
400024,19.0611,72.8792,0.1,Christopher Smith
400042,19.1338,72.9384,0.1,Antonio Norton
400051,19.0596,72.8553,0.1,Phillip Salazar
400099,19.0929,72.8654,0.1,Edward Smith
400088,19.0483,72.9288,0.1,Calvin King
400070,19.0741,72.8804,0.1,Anthony Herring
400016,19.0389,72.8421,0.1,Harry Smith
400097,19.1839,72.8584,0.1,Thomas Hill
400003,18.9532,72.8353,0.1,Andres Galloway
400027,18.9793,72.8383,0.1,Matthew Jones
400615,19.2683,72.971,0.1,Robert Jones
400070,19.0741,72.8804,0.1,Daniel Burns
400037,19.0257,72.8697,0.1,Luke Hart Jr.
400078,19.157,72.9327,0.1,Alicia Sharp
400031,19.0133,72.8549,0.1,Martin Warren
400091,19.234,72.8399,0.1,Stephen Crawford
400094,19.0359,72.9247,0.1,Colleen Bender
400040,19.0636,72.9228,0.1,Jacqueline Hester
400042,19.1338,72.9384,0.1,Phillip Stevens
400014,19.0148,72.8455,0.1,Philip Henderson Jr.
400060,19.1368,72.8579,0.1,Brian Hart
400051,19.0596,72.8553,0.1,Randy Gordon
400094,19.0359,72.9247,0.1,Mrs. Jacqueline Wood
400055,19.0804,72.8469,0.1,Jonathan Michael
400073,19.0718,72.9168,0.1,Katherine Quinn
400092,19.2327,72.7984,0.1,Shelley Lee
400045,19.0633,72.9258,0.1,Lisa Mejia
400005,18.9104,72.8198,0.1,Valerie Weaver
400085,19.0438,72.9121,0.1,Courtney Patterson
400076,19.1239,72.9094,0.1,John Fuller
400094,19.0359,72.9247,0.1,Preston Gilbert
400044,19.0633,72.9258,0.1,Brian Hayes
400094,19.0359,72.9247,0.1,Alexander Sutton
400074,19.029,72.8881,0.1,Christopher Taylor PhD
400092,19.2327,72.7984,0.1,Timothy Holland
400031,19.0133,72.8549,0.1,Jared Harvey
400052,19.0717,72.8341,0.1,David Wade
400098,19.0718,72.8615,0.1,Amanda Elliott
400004,18.958,72.8214,0.1,Trevor Miller
400052,19.0717,72.8341,0.1,Brian Brock
400083,19.1166,72.9374,0.1,Kurt Trevino
400068,19.2591,72.8338,0.1,Margaret Robertson
400039,18.9223,72.8312,0.1,Edwin Boyer
400034,18.9724,72.8148,0.1,Edward Martinez
400063,19.1648,72.8533,0.1,Brenda James
400085,19.0438,72.9121,0.1,Donna Garrett
400067,19.2072,72.8348,0.1,Alisha Collins
400004,18.958,72.8214,0.1,Susan Crane
400092,19.2327,72.7984,0.1,Stacy Hunter
400030,19.0122,72.8219,0.1,Kevin Hester
400046,19.1367,72.8109,0.1,Jessica Perry
400001,18.9385,72.8363,0.1,Matthew Brown
400015,18.9961,72.8528,0.1,Michael Cox
400050,19.0552,72.83,0.1,Christine Pierce
400100,19.0929,72.8654,0.1,Thomas Brown Jr.
400079,19.1025,72.9254,0.1,Logan Johnson
400094,19.0359,72.9247,0.1,Johnathan Wagner
400033,18.9856,72.8442,0.1,Eugene Martin
400021,18.9256,72.8242,0.1,Vincent Jacobson
400078,19.157,72.9327,0.1,John Michael
400088,19.0483,72.9288,0.1,Andrew Lewis
400082,19.1741,72.9372,0.1,Tara Martinez
400050,19.0552,72.83,0.1,Emily Chapman
400021,18.9256,72.8242,0.1,Cindy Horton
400041,19.0172,72.9398,0.1,Philip Jenkins
400017,19.0456,72.8537,0.1,William Doyle
400097,19.1839,72.8584,0.1,William Gonzales
400047,19.1246,72.8422,0.1,Billy Graham
400019,19.0269,72.8554,0.1,Courtney Richards
400007,18.9618,72.8134,0.1,Perry Villarreal
400072,19.1018,72.8904,0.1,Ashley Miller
400052,19.0717,72.8341,0.1,William Friedman
400006,18.9541,72.8004,0.1,Justin Diaz
400005,18.9104,72.8198,0.1,Chad Taylor
400091,19.234,72.8399,0.1,James Alvarado
400041,19.0172,72.9398,0.1,Charles Anthony
400033,18.9856,72.8442,0.1,Jessica Reyes
400096,19.1267,72.8767,0.1,Nathan Gordon
400058,19.1227,72.8302,0.1,Ms. Jennifer Williams
400011,18.981,72.8268,0.1,Ryan Rogers
400058,19.1227,72.8302,0.1,Scott Leonard
400058,19.1227,72.8302,0.1,Heather Nelson
400092,19.2327,72.7984,0.1,Valerie Duncan
400063,19.1648,72.8533,0.1,Stacy Flores
400070,19.0741,72.8804,0.1,John Luna
400078,19.157,72.9327,0.1,Victor Schroeder PhD
400092,19.2327,72.7984,0.1,Brett Ward
400708,19.157934,72.993477,0.1,John Perkins
400040,19.0636,72.9228,0.1,Dylan West
400023,18.9321,72.8323,0.1,Debra Carter
400012,18.9995,72.8397,0.1,Jacob Le
400046,19.1367,72.8109,0.1,Vanessa Smith
400070,19.0741,72.8804,0.1,Bill Tucker
400009,18.9583,72.8389,0.1,Jasmine Shaw
400044,19.0633,72.9258,0.1,Jay Ross
400065,19.1556,72.885,0.1,Steven Ford
400021,18.9256,72.8242,0.1,Austin Lucas
400061,19.1427,72.8053,0.1,Billy Lawson
400044,19.0633,72.9258,0.1,Julie Martin
400024,19.0611,72.8792,0.1,Daniel Burgess
400086,19.0893,72.9078,0.1,Diana Cohen
400008,18.9671,72.8287,0.1,Robert Austin
400070,19.0741,72.8804,0.1,Kristin Jones
400088,19.0483,72.9288,0.1,Timothy Foster
400055,19.0804,72.8469,0.1,Veronica Griffith
400018,18.9985,72.8174,0.1,Brian Mullen DVM
400073,19.0718,72.9168,0.1,Melanie Boone
400015,18.9961,72.8528,0.1,Melissa Harris
400093,19.1283,72.8677,0.1,Michaela Rodriguez
400036,18.9625,72.805,0.1,Eric Browning
400027,18.9793,72.8383,0.1,Darrell Anderson
400062,19.1593,72.8427,0.1,James Gonzalez
400067,19.2072,72.8348,0.1,Tommy Vasquez
400015,18.9961,72.8528,0.1,Michael Ray
400053,19.1121,72.8611,0.1,Tracy Davis
400101,19.2059,72.8661,0.1,Jon Brady
400064,19.1872,72.8407,0.1,Jeffrey Gray
400066,19.2313,72.8635,0.1,Margaret Woods
400049,19.1047,72.8268,0.1,Danielle Guerra
400101,19.2059,72.8661,0.1,Ernest Anderson
400055,19.0804,72.8469,0.1,Scott Gonzalez
400067,19.2072,72.8348,0.1,Lee Bautista
400068,19.2591,72.8338,0.1,Renee Nelson
400091,19.234,72.8399,0.1,Michelle French
400095,19.1888,72.8197,0.1,Robert Heath
400035,18.9417,72.7936,0.1,Nicolas Davis
400072,19.1018,72.8904,0.1,Daniel Reed
400054,19.082,72.8345,0.1,Frank Powell
400079,19.1025,72.9254,0.1,Terry Sanford
400086,19.0893,72.9078,0.1,Timothy Long
400012,18.9995,72.8397,0.1,Patrick Byrd
400026,18.9706,72.8095,0.1,Marilyn Jones
400039,18.9223,72.8312,0.1,John Cox
400071,19.0521,72.9007,0.1,Kim Huff
400018,18.9985,72.8174,0.1,Richard Harrison
400027,18.9793,72.8383,0.1,Jose Scott
400012,18.9995,72.8397,0.1,Cynthia Thomas
400054,19.082,72.8345,0.1,Bryce Charles
400039,18.9223,72.8312,0.1,Anthony Hancock
400002,18.9484,72.8259,0.1,Robert Stephens
400050,19.0552,72.83,0.1,Brandon Baker
400064,19.1872,72.8407,0.1,Mark Price
400069,19.1178,72.8737,0.1,David Miller
400023,18.9321,72.8323,0.1,Michael Vaughan
400059,19.1119,72.879,0.1,Julie Robertson
400002,18.9484,72.8259,0.1,Bianca Butler
400015,18.9961,72.8528,0.1,Anthony Campbell
400076,19.1239,72.9094,0.1,Kirsten Simon
400083,19.1166,72.9374,0.1,Peter Carter
400046,19.1367,72.8109,0.1,Lauren Davis
400014,19.0148,72.8455,0.1,Michael Sanchez
400030,19.0122,72.8219,0.1,Christopher Martin
400056,19.1045,72.8395,0.1,Daniel Dunlap
400032,18.929,72.8301,0.1,Aaron Johnson Jr.
400078,19.157,72.9327,0.1,Douglas Pena
400041,19.0172,72.9398,0.1,Steven Rodriguez
400032,18.929,72.8301,0.1,David Roberts
400010,18.9702,72.846,0.1,Ryan Garcia
400030,19.0122,72.8219,0.1,Jon Espinoza
400024,19.0611,72.8792,0.1,Kathleen Williams
400064,19.1872,72.8407,0.1,Anita Williams
400041,19.0172,72.9398,0.1,David Peterson
400072,19.1018,72.8904,0.1,Yesenia Nelson
400021,18.9256,72.8242,0.1,Jennifer Williams
400005,18.9104,72.8198,0.1,Austin Garcia DDS
400099,19.0929,72.8654,0.1,Jesse Morgan
400074,19.029,72.8881,0.1,Clayton Morrow
400061,19.1427,72.8053,0.1,Jonathan Walters
400009,18.9583,72.8389,0.1,Troy Montoya
400086,19.0893,72.9078,0.1,Regina Collins
400051,19.0596,72.8553,0.1,Jo Morris
400033,18.9856,72.8442,0.1,Daniel Gray
400043,19.0633,72.9258,0.1,Scott Mcguire
400065,19.1556,72.885,0.1,Larry Delgado PhD
400022,19.0426,72.8638,0.1,Martha Sampson
400070,19.0741,72.8804,0.1,Eric Khan
400009,18.9583,72.8389,0.1,Haley Rubio
400093,19.1283,72.8677,0.1,Patrick Shaw
400043,19.0633,72.9258,0.1,Eric Curry
400077,19.0779,72.9056,0.1,Michael Anderson
400007,18.9618,72.8134,0.1,Kenneth Williams
400068,19.2591,72.8338,0.1,Brent Caldwell
400012,18.9995,72.8397,0.1,Darius Griffin
400047,19.1246,72.8422,0.1,Joseph Hoffman
400006,18.9541,72.8004,0.1,Mrs. Kimberly Allen
400088,19.0483,72.9288,0.1,Tammy Juarez
400047,19.1246,72.8422,0.1,Michael Fitzpatrick
400018,18.9985,72.8174,0.1,Oscar Brown
400002,18.9484,72.8259,0.1,Jennifer Kidd
400063,19.1648,72.8533,0.1,Robert Phillips
400077,19.0779,72.9056,0.1,William Grimes
400087,19.1391,72.8956,0.1,Martin Adams
400071,19.0521,72.9007,0.1,Sarah Santiago
400089,19.0685,72.9003,0.1,John Benton
400088,19.0483,72.9288,0.1,Andrew Wilson
400033,18.9856,72.8442,0.1,Jacob Spencer
400075,19.0799,72.9174,0.1,Jason Obrien
400094,19.0359,72.9247,0.1,Christopher Thomas
400080,19.1721,72.9483,0.1,Carlos Dawson
400092,19.2327,72.7984,0.1,Barry Perez
400060,19.1368,72.8579,0.1,Jason Cabrera
400095,19.1888,72.8197,0.1,Justin Pratt
400016,19.0389,72.8421,0.1,John Patel
400005,18.9104,72.8198,0.1,Kevin Carter
400009,18.9583,72.8389,0.1,Corey Rowe
400083,19.1166,72.9374,0.1,Lisa Wagner
400009,18.9583,72.8389,0.1,Joel Lewis
400022,19.0426,72.8638,0.1,John Jones
400013,18.9982,72.8275,0.1,Manuel Burnett
400022,19.0426,72.8638,0.1,Mr. Christopher George
400058,19.1227,72.8302,0.1,Mrs. Megan Johnson
400029,19.0797,72.8679,0.1,Nathan Marshall
400615,19.2683,72.971,0.1,Ricky Barnes
400708,19.157934,72.993477,0.1,Barbara Welch
400079,19.1025,72.9254,0.1,Thomas Thomas
400006,18.9541,72.8004,0.1,William Campbell
400078,19.157,72.9327,0.1,Kevin Harrell
400018,18.9985,72.8174,0.1,Christopher Moore
400091,19.234,72.8399,0.1,Edward Blevins
400039,18.9223,72.8312,0.1,Michael Peters
400092,19.2327,72.7984,0.1,Richard Sparks
400054,19.082,72.8345,0.1,Linda White
400081,19.1661,72.9646,0.1,Brian Erickson
400023,18.9321,72.8323,0.1,David Mccormick
400070,19.0741,72.8804,0.1,Phillip White
400701,19.125362,72.9992,0.1,Brian Mckenzie
400065,19.1556,72.885,0.1,Jerry Bass
400101,19.2059,72.8661,0.1,Nancy Stewart
400006,18.9541,72.8004,0.1,Xavier Mcpherson
400099,19.0929,72.8654,0.1,Brandon Orozco
400100,19.0929,72.8654,0.1,Stanley Dunlap
400049,19.1047,72.8268,0.1,Amy Stone
400032,18.929,72.8301,0.1,Jordan Cordova
400096,19.1267,72.8767,0.1,Ryan Hughes
400074,19.029,72.8881,0.1,Anthony Bates
400050,19.0552,72.83,0.1,Joshua Martinez
400099,19.0929,72.8654,0.1,Maria Green
400094,19.0359,72.9247,0.1,Darren Murray
400062,19.1593,72.8427,0.1,Richard Dunn
400089,19.0685,72.9003,0.1,Michael Carlson
400096,19.1267,72.8767,0.1,Joseph Freeman
400076,19.1239,72.9094,0.1,Phillip Trevino
400024,19.0611,72.8792,0.1,Kyle Gonzalez
400069,19.1178,72.8737,0.1,Michelle Scott
400043,19.0633,72.9258,0.1,Robert Jackson
400065,19.1556,72.885,0.1,Lisa Thomas
400083,19.1166,72.9374,0.1,Tyler Ho
400047,19.1246,72.8422,0.1,Cody Graham
400013,18.9982,72.8275,0.1,Patrick Hogan
400043,19.0633,72.9258,0.1,Nicholas Garner
400075,19.0799,72.9174,0.1,Michael Gates
400065,19.1556,72.885,0.1,Katherine Delgado
400060,19.1368,72.8579,0.1,Amy Osborn
400022,19.0426,72.8638,0.1,Natalie Hanson
400090,19.1629,72.8353,0.1,Steven Barber
400100,19.0929,72.8654,0.1,Michelle Smith
400021,18.9256,72.8242,0.1,Marissa Campbell
400076,19.1239,72.9094,0.1,Gregory Parsons
400036,18.9625,72.805,0.1,Timothy Phillips
400079,19.1025,72.9254,0.1,Ricky Cook
400041,19.0172,72.9398,0.1,Jessica Allison
400010,18.9702,72.846,0.1,Scott Johnson
400002,18.9484,72.8259,0.1,Carol Hayden
400088,19.0483,72.9288,0.1,Lindsey Palmer
400084,19.0976,72.9032,0.1,Johnny Dickerson
400011,18.981,72.8268,0.1,Shannon Klein
400100,19.0929,72.8654,0.1,Jennifer Mccoy
400082,19.1741,72.9372,0.1,Keith Crosby
400064,19.1872,72.8407,0.1,Julie Savage
400086,19.0893,72.9078,0.1,Steven Adams
400041,19.0172,72.9398,0.1,Linda Clark
400037,19.0257,72.8697,0.1,Thomas Oneill
400085,19.0438,72.9121,0.1,Charles Wilson
400027,18.9793,72.8383,0.1,Jose Barnes
400083,19.1166,72.9374,0.1,Miguel Diaz
400080,19.1721,72.9483,0.1,Jessica Lopez
400099,19.0929,72.8654,0.1,Brooke White
400080,19.1721,72.9483,0.1,David Mueller
400016,19.0389,72.8421,0.1,Jeff Alvarado
400033,18.9856,72.8442,0.1,Sean Ortega
400043,19.0633,72.9258,0.1,Stephen Joseph
400044,19.0633,72.9258,0.1,Christopher Roberts
400093,19.1283,72.8677,0.1,Kevin Young
400002,18.9484,72.8259,0.1,David Yu II
400092,19.2327,72.7984,0.1,David Simpson
400085,19.0438,72.9121,0.1,Carlos Walker
400014,19.0148,72.8455,0.1,Matthew Michael
400060,19.1368,72.8579,0.1,Eric Owen
400072,19.1018,72.8904,0.1,William Powell
400052,19.0717,72.8341,0.1,Robert Kelly
400068,19.2591,72.8338,0.1,Michael Olson
400096,19.1267,72.8767,0.1,Thomas Shannon
400701,19.125362,72.9992,0.1,Candace Chavez
400094,19.0359,72.9247,0.1,Troy Nelson
400099,19.0929,72.8654,0.1,Robert Cruz
400084,19.0976,72.9032,0.1,William Burke
400070,19.0741,72.8804,0.1,Philip Daniels
400087,19.1391,72.8956,0.1,Paul Johnson
400048,18.9104,72.8198,0.1,Elizabeth Moreno
400100,19.0929,72.8654,0.1,Jeffrey Pineda
400064,19.1872,72.8407,0.1,Christopher Ellison
400012,18.9995,72.8397,0.1,Andrew Meyers
400087,19.1391,72.8956,0.1,Laura Roach
400028,19.0217,72.8375,0.1,Vanessa Perez
400091,19.234,72.8399,0.1,Crystal Hill
400066,19.2313,72.8635,0.1,Anthony Lopez
400016,19.0389,72.8421,0.1,Brandon Villarreal
400069,19.1178,72.8737,0.1,Steven Fowler
400067,19.2072,72.8348,0.1,Jennifer Mcdonald
400068,19.2591,72.8338,0.1,Heather Smith
400068,19.2591,72.8338,0.1,Rachel Leon
400054,19.082,72.8345,0.1,Steven Pratt
400615,19.2683,72.971,0.1,Daniel Anderson
400100,19.0929,72.8654,0.1,Maria Wood
400098,19.0718,72.8615,0.1,Anthony Hart
400035,18.9417,72.7936,0.1,Raymond Smith
400032,18.929,72.8301,0.1,Zachary Nicholson
400044,19.0633,72.9258,0.1,Jim Murphy
400050,19.0552,72.83,0.1,Gail Frazier
400060,19.1368,72.8579,0.1,John Miles MD
400047,19.1246,72.8422,0.1,Jeremy Reyes
400015,18.9961,72.8528,0.1,Mark Reed
400062,19.1593,72.8427,0.1,Douglas Harrison
400069,19.1178,72.8737,0.1,Heather Edwards
400065,19.1556,72.885,0.1,Kevin Rios
400072,19.1018,72.8904,0.1,Edward Cole
400006,18.9541,72.8004,0.1,Joel Thomas
400002,18.9484,72.8259,0.1,Henry Marshall
400038,18.9377,72.839,0.1,Kevin Henderson
400049,19.1047,72.8268,0.1,Robert Jimenez
400049,19.1047,72.8268,0.1,Johnny Miller
400045,19.0633,72.9258,0.1,Glenn Moreno
400065,19.1556,72.885,0.1,Meagan Chen
400017,19.0456,72.8537,0.1,Adam Giles
400032,18.929,72.8301,0.1,Kelly Daniel
400050,19.0552,72.83,0.1,Jason Tapia
400012,18.9995,72.8397,0.1,David Davis
400031,19.0133,72.8549,0.1,Kevin Graves
400060,19.1368,72.8579,0.1,James Barron
400069,19.1178,72.8737,0.1,Robert Waller
400010,18.9702,72.846,0.1,William Morales
400034,18.9724,72.8148,0.1,Laura Serrano DVM
400043,19.0633,72.9258,0.1,Laura Graham
400701,19.125362,72.9992,0.1,Dustin Turner
400006,18.9541,72.8004,0.1,Stephanie Lawson
400091,19.234,72.8399,0.1,Jeremy Gomez
400063,19.1648,72.8533,0.1,Joshua Aguilar
400076,19.1239,72.9094,0.1,John Pollard
400043,19.0633,72.9258,0.1,David Reid
400100,19.0929,72.8654,0.1,Jerry Bailey
400041,19.0172,72.9398,0.1,Jessica Miller
400016,19.0389,72.8421,0.1,Bianca Carter
400029,19.0797,72.8679,0.1,Kevin Anderson
400002,18.9484,72.8259,0.1,Paul Davis
400005,18.9104,72.8198,0.1,Toni Thompson
400009,18.9583,72.8389,0.1,Joshua Terry
400059,19.1119,72.879,0.1,Tracy Bird
400057,19.1007,72.8485,0.1,William Clements
400065,19.1556,72.885,0.1,Amy Velasquez
400052,19.0717,72.8341,0.1,Zachary Adkins
400016,19.0389,72.8421,0.1,Kevin Callahan
400030,19.0122,72.8219,0.1,Robert Smith
400022,19.0426,72.8638,0.1,Brittany Beard
400045,19.0633,72.9258,0.1,Michael Glenn
400014,19.0148,72.8455,0.1,Richard Ruiz
400009,18.9583,72.8389,0.1,Jonathan Deleon Jr.
400100,19.0929,72.8654,0.1,Peter Gonzalez
400048,18.9104,72.8198,0.1,Jennifer West
400096,19.1267,72.8767,0.1,Kelly Russell
400082,19.1741,72.9372,0.1,David Barnes
400057,19.1007,72.8485,0.1,Brian Pope
400071,19.0521,72.9007,0.1,Kevin White
400050,19.0552,72.83,0.1,Joseph Yoder
400054,19.082,72.8345,0.1,Jason Kelley
400100,19.0929,72.8654,0.1,William Levy
400701,19.125362,72.9992,0.1,Mark Ford
400007,18.9618,72.8134,0.1,Evelyn Baker
400003,18.9532,72.8353,0.1,Raymond Short
400044,19.0633,72.9258,0.1,Natalie House MD
400083,19.1166,72.9374,0.1,William Smith
400003,18.9532,72.8353,0.1,Gregory Morris
400077,19.0779,72.9056,0.1,Cindy Quinn
400061,19.1427,72.8053,0.1,Danny Johnson
400080,19.1721,72.9483,0.1,Justin Jacobs
400006,18.9541,72.8004,0.1,Mary Smith
400081,19.1661,72.9646,0.1,Anthony Jones
400051,19.0596,72.8553,0.1,Samuel Smith
400049,19.1047,72.8268,0.1,Christopher Higgins
400046,19.1367,72.8109,0.1,Jennifer Peterson
400059,19.1119,72.879,0.1,Whitney Tran
400061,19.1427,72.8053,0.1,Michael Mercer
400006,18.9541,72.8004,0.1,Aaron Taylor
400030,19.0122,72.8219,0.1,Veronica Pennington
400097,19.1839,72.8584,0.1,Rachel Brown
400055,19.0804,72.8469,0.1,Samuel Henderson
400099,19.0929,72.8654,0.1,Blake Marquez
400099,19.0929,72.8654,0.1,Eric Bridges
400003,18.9532,72.8353,0.1,Cameron Holmes
400005,18.9104,72.8198,0.1,Sean Gibbs
400019,19.0269,72.8554,0.1,Paul Sweeney
400701,19.125362,72.9992,0.1,Brianna Small
400615,19.2683,72.971,0.1,Alexander Freeman
400071,19.0521,72.9007,0.1,Becky Ramos
400100,19.0929,72.8654,0.1,Calvin Davis
400046,19.1367,72.8109,0.1,Sarah Roach
400039,18.9223,72.8312,0.1,Benjamin Harris
400708,19.157934,72.993477,0.1,Phillip Moore
400094,19.0359,72.9247,0.1,Donald Noble
